GLOBALSTAR M069         
1 31573U 07020C   26177.60988189 -.00000056  00000+0  34208-3 0  9991
2 31573  52.0006 225.4569 0002122 168.8037 356.6971 12.23471505879952
GLOBALSTAR M072         
1 31574U 07020D   26177.47132381 -.00000088  00000+0 -55185-4 0  9996
2 31574  51.9936  75.5285 0001515 355.1147 176.0798 11.91658426876085
GLOBALSTAR M066         
1 32265U 07048C   26177.36169566 -.00000132  00000+0 -31970-3 0  9992
2 32265  51.9611  31.5754 0005621  63.7349 106.8093 12.30386848861357
GLOBALSTAR M079         
1 37188U 10054A   26177.50408578 -.00000112  00000+0 -44632-4 0  9995
2 37188  52.0044  80.3080 0000913  45.0013 125.7779 12.62266185723727
GLOBALSTAR M074         
1 37189U 10054B   26177.65233685 -.00000111  00000+0 -40805-4 0  9994
2 37189  52.0006  79.1205 0000632  64.3572 300.6926 12.62261610724359
GLOBALSTAR M076         
1 37190U 10054C   26177.47767428 -.00000119  00000+0 -85236-4 0  9998
2 37190  52.0029  79.8557 0000935  60.8977 109.9728 12.62261846724046
GLOBALSTAR M077         
1 37191U 10054D   26177.65147998 -.00000067  00000+0  20197-3 0  9998
2 37191  51.9925 155.2729 0002578 189.9051 341.0029 11.67547973722246
GLOBALSTAR M075         
1 37192U 10054E   26177.56997522 -.00000110  00000+0 -35889-4 0  9990
2 37192  51.9939 121.6235 0000395  36.4636 134.1495 12.62267415723123
GLOBALSTAR M073         
1 37193U 10054F   26177.61952660 -.00000091  00000+0  73803-4 0  9996
2 37193  52.0075  35.5809 0001062  66.3959 327.9293 12.62266644725122
GLOBALSTAR M083         
1 37739U 11033A   26177.18745677 -.00000074  00000+0  16583-3 0  9992
2 37739  51.9879 345.1120 0000960  81.4540  89.9223 12.62263607694088
GLOBALSTAR M088         
1 37740U 11033B   26177.63197851 -.00000082  00000+0  12254-3 0  9999
2 37740  52.0203 250.2110 0000498 140.7820  10.0137 12.62268977689688
GLOBALSTAR M091         
1 37741U 11033C   26177.56893778 -.00000076  00000+0  15368-3 0  9995
2 37741  51.9969 213.3536 0000069 178.3875 346.6598 12.62264096690464
GLOBALSTAR M085         
1 37742U 11033D   26177.28488667 -.00000092  00000+0  67773-4 0  9998
2 37742  52.0098 165.5167 0000317 353.0409  20.6745 12.62264170690948
GLOBALSTAR M081         
1 37743U 11033E   26177.23203899 -.00000087  00000+0  90824-4 0  9993
2 37743  51.9930 168.1037 0000215  36.5022 336.6538 12.62265217691087
GLOBALSTAR M089         
1 37744U 11033F   26177.62290983 -.00000111  00000+0 -41350-4 0  9996
2 37744  51.9919 121.0703 0000490  78.1915  92.9578 12.62267377691974
GLOBALSTAR M084         
1 38040U 11080A   26177.24013407 -.00000095  00000+0  49990-4 0  9998
2 38040  52.0028 349.7218 0001099 100.2401  70.5922 12.62267637669902
GLOBALSTAR M080         
1 38041U 11080B   26176.88963855 -.00000084  00000+0  10923-3 0  9990
2 38041  52.0083 352.5100 0000419  77.4579  69.9865 12.62269684669982
GLOBALSTAR M082         
1 38042U 11080C   26176.82973512 -.00000103  00000+0  28681-5 0  9990
2 38042  52.0091 308.1947 0000483 105.6187  59.3357 12.62263705670684
GLOBALSTAR M092         
1 38043U 11080D   26177.56280399 -.00000096  00000+0  41038-4 0  9998
2 38043  52.0097  36.3604 0000817  77.1480 299.7277 12.62267093669235
GLOBALSTAR M090         
1 38044U 11080E   26177.61475083 -.00000105  00000+0 -53256-5 0  9999
2 38044  52.0135 299.7638 0000723 102.7199 270.3891 12.62269095670906
GLOBALSTAR M086         
1 38045U 11080F   26177.63638131 -.00000078  00000+0  14251-3 0  9995
2 38045  51.9911 299.6125 0001688  83.5141 289.5756 12.62287213670859
GLOBALSTAR M097         
1 39072U 13005A   26177.34830671 -.00000074  00000+0  16732-3 0  9998
2 39072  52.0016 215.4501 0000136 101.4550 258.6332 12.62271183618064
GLOBALSTAR M093         
1 39073U 13005B   26177.40064248 -.00000078  00000+0  14620-3 0  9993
2 39073  52.0076 208.6399 0000214  41.7015 318.3868 12.62266064618025
GLOBALSTAR M094         
1 39074U 13005C   26177.55888188 -.00000122  00000+0 -10073-3 0  9996
2 39074  51.9945 122.2641 0000648  27.4892 332.6009 12.62268488619653
GLOBALSTAR M096         
1 39075U 13005D   26177.25564900 -.00000094  00000+0  51738-4 0  9998
2 39075  52.0044 171.9966 0000254 358.7233   1.3633 12.62265644618539
GLOBALSTAR M078         
1 39076U 13005E   26177.54544693  .00000027  00000+0  72985-3 0  9999
2 39076  51.9866 255.1129 0000487 269.8316  90.2495 12.62259766617190
GLOBALSTAR M095         
1 39077U 13005F   26177.57216820 -.00000081  00000+0  12517-3 0  9997
2 39077  52.0075 252.6491 0000063  96.8414 263.2460 12.62263623617052
GLOBALSTAR M087         
1 52888U 22064A   26177.58536323 -.00000098  00000+0  34778-4 0  9993
2 52888  52.0011  33.8405 0000885  57.5494 302.5458 12.62269216192321
